UNKNOWN                 
1 87159U          25336.51659678  .00001561  00000+0  18214-2 0  9996
2 87159  90.3494  69.0344 0103728 286.3440  72.6334 13.66020359555291
UNKNOWN                 
1 87163U          25344.14549721  .00005019  00000+0  15250-2 0  9995
2 87163  65.6005 242.7049 0642353  65.7784 300.9015 13.63895498577167
UNKNOWN                 
1 87164U          25345.25527434  .00009038  00000+0  18438-2 0  9992
2 87164  65.2045 332.0214 0098185  55.0402 305.9869 14.58354122635551
UNKNOWN                 
1 87204U          25343.84139341  .00004320  00000+0  16941-2 0  9992
2 87204  98.5361 204.7183 0046345 333.9501  25.9349 14.29310554625027
UNKNOWN                 
1 87211U          25343.84496843  .00005642  00000+0  15550-2 0  9996
2 87211  99.0862 343.4499 0053304 167.0544 314.1175 14.46442023707357
UNKNOWN                 
1 87214U          25341.76290563  .00001360  00000+0  12421-2 0  9996
2 87214 100.3311 339.9413 0074280 267.0757  92.1891 13.84086964599552
UNKNOWN                 
1 87237U          25343.96119420  .00000647  00000+0  52232-3 0  9999
2 87237  99.2571  39.4503 0102512 291.8170 193.6205 13.91748808611378
UNKNOWN                 
1 87239U          25343.71076610  .00015295  00000+0  37781-2 0  9993
2 87239  82.8738  85.4410 0018252  56.1879 304.1055 14.51889229627432
UNKNOWN                 
1 87245U          25345.60443815  .00006874  00000+0  14250-2 0  9994
2 87245  65.6424  50.8489 0430096 121.8184  23.7812 14.15825447614045
UNKNOWN                 
1 87271U          25344.72476193  .00011431  00000+0  21181-2 0  9996
2 87271  65.7546 241.7180 0419450  74.6460 290.0561 14.21598780612088
UNKNOWN                 
1 87280U          25344.97031519  .00000495  00000+0  88242-3 0  9992
2 87280  64.6151 239.7501 0129679 261.1433  97.4905 13.48551752533614
UNKNOWN                 
1 87293U          25345.46828897  .00006965  00000+0  13867-2 0  9992
2 87293  65.8970 148.6227 0426262   0.3530 359.7774 14.18006763613816
