CCSDS_OMM_VERS = 2.0
CREATION_DATE  = 
ORIGINATOR     = 

OBJECT_NAME    = UNKNOWN
OBJECT_ID      = 
CENTER_NAME    = EARTH
REF_FRAME      = TEME
TIME_SYSTEM    = UTC
MEAN_ELEMENT_THEORY = SGP/SGP4

EPOCH          = 2025-12-02T12:23:53.961792
MEAN_MOTION    = 13.66020359
ECCENTRICITY   = .0103728
INCLINATION    = 90.3494
RA_OF_ASC_NODE = 69.0344
ARG_OF_PERICENTER = 286.3440
MEAN_ANOMALY   = 72.6334

EPHEMERIS_TYPE = 0
CLASSIFICATION_TYPE = U
NORAD_CAT_ID   = 87159
ELEMENT_SET_NO = 999
REV_AT_EPOCH   = 55529
BSTAR          = .18214E-2
MEAN_MOTION_DOT = .1561E-4
MEAN_MOTION_DDOT = 0

CCSDS_OMM_VERS = 2.0
CREATION_DATE  = 
ORIGINATOR     = 

OBJECT_NAME    = UNKNOWN
OBJECT_ID      = 
CENTER_NAME    = EARTH
REF_FRAME      = TEME
TIME_SYSTEM    = UTC
MEAN_ELEMENT_THEORY = SGP/SGP4

EPOCH          = 2025-12-10T03:29:30.958944
MEAN_MOTION    = 13.63895498
ECCENTRICITY   = .0642353
INCLINATION    = 65.6005
RA_OF_ASC_NODE = 242.7049
ARG_OF_PERICENTER = 65.7784
MEAN_ANOMALY   = 300.9015

EPHEMERIS_TYPE = 0
CLASSIFICATION_TYPE = U
NORAD_CAT_ID   = 87163
ELEMENT_SET_NO = 999
REV_AT_EPOCH   = 57716
BSTAR          = .1525E-2
MEAN_MOTION_DOT = .5019E-4
MEAN_MOTION_DDOT = 0

CCSDS_OMM_VERS = 2.0
CREATION_DATE  = 
ORIGINATOR     = 

OBJECT_NAME    = UNKNOWN
OBJECT_ID      = 
CENTER_NAME    = EARTH
REF_FRAME      = TEME
TIME_SYSTEM    = UTC
MEAN_ELEMENT_THEORY = SGP/SGP4

EPOCH          = 2025-12-11T06:07:35.702976
MEAN_MOTION    = 14.58354122
ECCENTRICITY   = .0098185
INCLINATION    = 65.2045
RA_OF_ASC_NODE = 332.0214
ARG_OF_PERICENTER = 55.0402
MEAN_ANOMALY   = 305.9869

EPHEMERIS_TYPE = 0
CLASSIFICATION_TYPE = U
NORAD_CAT_ID   = 87164
ELEMENT_SET_NO = 999
REV_AT_EPOCH   = 63555
BSTAR          = .18438E-2
MEAN_MOTION_DOT = .9038E-4
MEAN_MOTION_DDOT = 0

CCSDS_OMM_VERS = 2.0
CREATION_DATE  = 
ORIGINATOR     = 

OBJECT_NAME    = UNKNOWN
OBJECT_ID      = 
CENTER_NAME    = EARTH
REF_FRAME      = TEME
TIME_SYSTEM    = UTC
MEAN_ELEMENT_THEORY = SGP/SGP4

EPOCH          = 2025-12-09T20:11:36.390624
MEAN_MOTION    = 14.29310554
ECCENTRICITY   = .0046345
INCLINATION    = 98.5361
RA_OF_ASC_NODE = 204.7183
ARG_OF_PERICENTER = 333.9501
MEAN_ANOMALY   = 25.9349

EPHEMERIS_TYPE = 0
CLASSIFICATION_TYPE = U
NORAD_CAT_ID   = 87204
ELEMENT_SET_NO = 999
REV_AT_EPOCH   = 62502
BSTAR          = .16941E-2
MEAN_MOTION_DOT = .432E-4
MEAN_MOTION_DDOT = 0

CCSDS_OMM_VERS = 2.0
CREATION_DATE  = 
ORIGINATOR     = 

OBJECT_NAME    = UNKNOWN
OBJECT_ID      = 
CENTER_NAME    = EARTH
REF_FRAME      = TEME
TIME_SYSTEM    = UTC
MEAN_ELEMENT_THEORY = SGP/SGP4

EPOCH          = 2025-12-09T20:16:45.272352
MEAN_MOTION    = 14.46442023
ECCENTRICITY   = .0053304
INCLINATION    = 99.0862
RA_OF_ASC_NODE = 343.4499
ARG_OF_PERICENTER = 167.0544
MEAN_ANOMALY   = 314.1175

EPHEMERIS_TYPE = 0
CLASSIFICATION_TYPE = U
NORAD_CAT_ID   = 87211
ELEMENT_SET_NO = 999
REV_AT_EPOCH   = 70735
BSTAR          = .1555E-2
MEAN_MOTION_DOT = .5642E-4
MEAN_MOTION_DDOT = 0

CCSDS_OMM_VERS = 2.0
CREATION_DATE  = 
ORIGINATOR     = 

OBJECT_NAME    = UNKNOWN
OBJECT_ID      = 
CENTER_NAME    = EARTH
REF_FRAME      = TEME
TIME_SYSTEM    = UTC
MEAN_ELEMENT_THEORY = SGP/SGP4

EPOCH          = 2025-12-07T18:18:35.046432
MEAN_MOTION    = 13.84086964
ECCENTRICITY   = .007428
INCLINATION    = 100.3311
RA_OF_ASC_NODE = 339.9413
ARG_OF_PERICENTER = 267.0757
MEAN_ANOMALY   = 92.1891

EPHEMERIS_TYPE = 0
CLASSIFICATION_TYPE = U
NORAD_CAT_ID   = 87214
ELEMENT_SET_NO = 999
REV_AT_EPOCH   = 59955
BSTAR          = .12421E-2
MEAN_MOTION_DOT = .136E-4
MEAN_MOTION_DDOT = 0

CCSDS_OMM_VERS = 2.0
CREATION_DATE  = 
ORIGINATOR     = 

OBJECT_NAME    = UNKNOWN
OBJECT_ID      = 
CENTER_NAME    = EARTH
REF_FRAME      = TEME
TIME_SYSTEM    = UTC
MEAN_ELEMENT_THEORY = SGP/SGP4

EPOCH          = 2025-12-09T23:04:07.178880
MEAN_MOTION    = 13.91748808
ECCENTRICITY   = .0102512
INCLINATION    = 99.2571
RA_OF_ASC_NODE = 39.4503
ARG_OF_PERICENTER = 291.8170
MEAN_ANOMALY   = 193.6205

EPHEMERIS_TYPE = 0
CLASSIFICATION_TYPE = U
NORAD_CAT_ID   = 87237
ELEMENT_SET_NO = 999
REV_AT_EPOCH   = 61137
BSTAR          = .52232E-3
MEAN_MOTION_DOT = .647E-5
MEAN_MOTION_DDOT = 0

CCSDS_OMM_VERS = 2.0
CREATION_DATE  = 
ORIGINATOR     = 

OBJECT_NAME    = UNKNOWN
OBJECT_ID      = 
CENTER_NAME    = EARTH
REF_FRAME      = TEME
TIME_SYSTEM    = UTC
MEAN_ELEMENT_THEORY = SGP/SGP4

EPOCH          = 2025-12-09T17:03:30.191040
MEAN_MOTION    = 14.51889229
ECCENTRICITY   = .0018252
INCLINATION    = 82.8738
RA_OF_ASC_NODE = 85.4410
ARG_OF_PERICENTER = 56.1879
MEAN_ANOMALY   = 304.1055

EPHEMERIS_TYPE = 0
CLASSIFICATION_TYPE = U
NORAD_CAT_ID   = 87239
ELEMENT_SET_NO = 999
REV_AT_EPOCH   = 62743
BSTAR          = .37781E-2
MEAN_MOTION_DOT = .15295E-3
MEAN_MOTION_DDOT = 0

CCSDS_OMM_VERS = 2.0
CREATION_DATE  = 
ORIGINATOR     = 

OBJECT_NAME    = UNKNOWN
OBJECT_ID      = 
CENTER_NAME    = EARTH
REF_FRAME      = TEME
TIME_SYSTEM    = UTC
MEAN_ELEMENT_THEORY = SGP/SGP4

EPOCH          = 2025-12-11T14:30:23.456160
MEAN_MOTION    = 14.15825447
ECCENTRICITY   = .0430096
INCLINATION    = 65.6424
RA_OF_ASC_NODE = 50.8489
ARG_OF_PERICENTER = 121.8184
MEAN_ANOMALY   = 23.7812

EPHEMERIS_TYPE = 0
CLASSIFICATION_TYPE = U
NORAD_CAT_ID   = 87245
ELEMENT_SET_NO = 999
REV_AT_EPOCH   = 61404
BSTAR          = .1425E-2
MEAN_MOTION_DOT = .6874E-4
MEAN_MOTION_DDOT = 0

CCSDS_OMM_VERS = 2.0
CREATION_DATE  = 
ORIGINATOR     = 

OBJECT_NAME    = UNKNOWN
OBJECT_ID      = 
CENTER_NAME    = EARTH
REF_FRAME      = TEME
TIME_SYSTEM    = UTC
MEAN_ELEMENT_THEORY = SGP/SGP4

EPOCH          = 2025-12-10T17:23:39.430752
MEAN_MOTION    = 14.21598780
ECCENTRICITY   = .041945
INCLINATION    = 65.7546
RA_OF_ASC_NODE = 241.7180
ARG_OF_PERICENTER = 74.6460
MEAN_ANOMALY   = 290.0561

EPHEMERIS_TYPE = 0
CLASSIFICATION_TYPE = U
NORAD_CAT_ID   = 87271
ELEMENT_SET_NO = 999
REV_AT_EPOCH   = 61208
BSTAR          = .21181E-2
MEAN_MOTION_DOT = .11431E-3
MEAN_MOTION_DDOT = 0

CCSDS_OMM_VERS = 2.0
CREATION_DATE  = 
ORIGINATOR     = 

OBJECT_NAME    = UNKNOWN
OBJECT_ID      = 
CENTER_NAME    = EARTH
REF_FRAME      = TEME
TIME_SYSTEM    = UTC
MEAN_ELEMENT_THEORY = SGP/SGP4

EPOCH          = 2025-12-10T23:17:15.232416
MEAN_MOTION    = 13.48551752
ECCENTRICITY   = .0129679
INCLINATION    = 64.6151
RA_OF_ASC_NODE = 239.7501
ARG_OF_PERICENTER = 261.1433
MEAN_ANOMALY   = 97.4905

EPHEMERIS_TYPE = 0
CLASSIFICATION_TYPE = U
NORAD_CAT_ID   = 87280
ELEMENT_SET_NO = 999
REV_AT_EPOCH   = 53361
BSTAR          = .88242E-3
MEAN_MOTION_DOT = .495E-5
MEAN_MOTION_DDOT = 0

CCSDS_OMM_VERS = 2.0
CREATION_DATE  = 
ORIGINATOR     = 

OBJECT_NAME    = UNKNOWN
OBJECT_ID      = 
CENTER_NAME    = EARTH
REF_FRAME      = TEME
TIME_SYSTEM    = UTC
MEAN_ELEMENT_THEORY = SGP/SGP4

EPOCH          = 2025-12-11T11:14:20.167008
MEAN_MOTION    = 14.18006763
ECCENTRICITY   = .0426262
INCLINATION    = 65.8970
RA_OF_ASC_NODE = 148.6227
ARG_OF_PERICENTER = 0.3530
MEAN_ANOMALY   = 359.7774

EPHEMERIS_TYPE = 0
CLASSIFICATION_TYPE = U
NORAD_CAT_ID   = 87293
ELEMENT_SET_NO = 999
REV_AT_EPOCH   = 61381
BSTAR          = .13867E-2
MEAN_MOTION_DOT = .6965E-4
MEAN_MOTION_DDOT = 0

